{
    "links": {
        "self": "http://www.neowsapp.com/rest/v1/neo/3991728?api_key=iIulBulltgU6a56xZRHN4H3l9WmuAYTsLGpBGhQ2"
    },
    "id": "3991728",
    "neo_reference_id": "3991728",
    "name": "(2020 DB2)",
    "designation": "2020 DB2",
    "nasa_jpl_url": "http://ssd.jpl.nasa.gov/sbdb.cgi?sstr=3991728",
    "absolute_magnitude_h": 25.048,
    "estimated_diameter": {
        "kilometers": {
            "estimated_diameter_min": 0.0259989002,
            "estimated_diameter_max": 0.0581353081
        },
        "meters": {
            "estimated_diameter_min": 25.9989001809,
            "estimated_diameter_max": 58.1353081447
        },
        "miles": {
            "estimated_diameter_min": 0.0161549626,
            "estimated_diameter_max": 0.0361235946
        },
        "feet": {
            "estimated_diameter_min": 85.2982316695,
            "estimated_diameter_max": 190.7326443736
        }
    },
    "is_potentially_hazardous_asteroid": false,
    "close_approach_data": [
        {
            "close_approach_date": "2020-02-22",
            "close_approach_date_full": "2020-Feb-22 20:55",
            "epoch_date_close_approach": 1582404900000,
            "relative_velocity": {
                "kilometers_per_second": "20.4953843805",
                "kilometers_per_hour": "73783.3837696254",
                "miles_per_hour": "45846.125320632"
            },
            "miss_distance": {
                "astronomical": "0.0369920682",
                "lunar": "14.3899145298",
                "kilometers": "5533934.609614734",
                "miles": "3438627.5151379692"
            },
            "orbiting_body": "Earth"
        },
        {
            "close_approach_date": "2065-01-30",
            "close_approach_date_full": "2065-Jan-30 04:44",
            "epoch_date_close_approach": 3000516240000,
            "relative_velocity": {
                "kilometers_per_second": "34.7236892044",
                "kilometers_per_hour": "125005.2811357169",
                "miles_per_hour": "77673.4203812459"
            },
            "miss_distance": {
                "astronomical": "0.4934111533",
                "lunar": "191.9369386337",
                "kilometers": "73813257.567923471",
                "miles": "45865431.4443910598"
            },
            "orbiting_body": "Earth"
        }
    ],
    "orbital_data": {
        "orbit_id": "1",
        "orbit_determination_date": "2020-02-20 09:12:08",
        "first_observation_date": "2020-02-18",
        "last_observation_date": "2020-02-20",
        "data_arc_in_days": 2,
        "observations_used": 18,
        "orbit_uncertainty": "9",
        "minimum_orbit_intersection": ".0119741",
        "jupiter_tisserand_invariant": "3.814",
        "epoch_osculation": "2458898.5",
        "eccentricity": ".6482236945990058",
        "semi_major_axis": "1.777805968655636",
        "inclination": "5.040643346151117",
        "ascending_node_longitude": "322.3380733545281",
        "orbital_period": "865.8147232729667",
        "perihelion_distance": ".6253900153735152",
        "perihelion_argument": "279.4440218250577",
        "aphelion_distance": "2.930221921937756",
        "perihelion_time": "2458950.047072421029",
        "mean_anomaly": "338.567070329526",
        "mean_motion": ".4157933450693957",
        "equinox": "J2000",
        "orbit_class": {
            "orbit_class_type": "APO",
            "orbit_class_description": "Near-Earth asteroid orbits which cross the Earth’s orbit similar to that of 1862 Apollo",
            "orbit_class_range": "a (semi-major axis) > 1.0 AU; q (perihelion) < 1.017 AU"
        }
    },
    "is_sentry_object": false
}